{"type": "FeatureCollection", "features": [ {"type": "Feature", "properties": {"norad_id": 66929, "name": "STARLINK-36169", "group": "last-30-days", "lat": 8.144630241829883, "lon": -3.557966391268299, "alt_km": 378.73424613776206, "timestamp": "2025-12-24T18:55:54.777902+00:00", "meta": {"OBJECT_NAME": "STARLINK-36169", "OBJECT_ID": "2025-286E", "EPOCH": "2025-12-24T06:00:02.000160", "MEAN_MOTION": 15.65326961, "ECCENTRICITY": 0.00015039, "INCLINATION": 53.1597, "RA_OF_ASC_NODE": 352.9171, "ARG_OF_PERICENTER": 90.2722, "MEAN_ANOMALY": 124.3699, "EPHEMERIS_TYPE": 0, "CLASSIFICATION_TYPE": "U", "NORAD_CAT_ID": 66929, "ELEMENT_SET_NO": 999, "REV_AT_EPOCH": 384, "BSTAR": -0.022810179, "MEAN_MOTION_DOT": -0.02030739, "MEAN_MOTION_DDOT": 0}, "tle": {"line1": "1 66929U 25286E   25358.25002315 -.02030739  00000+0 -22810-1 0  9995", "line2": "2 66929  53.1597 352.9171 0001503  90.2722 124.3699 15.65326961  3846"}}, "geometry": {"type": "Point", "coordinates": [-3.557966391268299, 8.144630241829883]}}, {"type": "Feature", "properties": {"norad_id": 66930, "name": "STARLINK-36206", "group": "last-30-days", "lat": 9.669056305376547, "lon": -2.3831763857718546, "alt_km": 378.4774609506667, "timestamp": "2025-12-24T18:55:54.777912+00:00", "meta": {"OBJECT_NAME": "STARLINK-36206", "OBJECT_ID": "2025-286F", "EPOCH": "2025-12-24T06:00:02.000160", "MEAN_MOTION": 15.65324499, "ECCENTRICITY": 0.00015349, "INCLINATION": 53.1595, "RA_OF_ASC_NODE": 352.9126, "ARG_OF_PERICENTER": 91.5213, "MEAN_ANOMALY": 125.0367, "EPHEMERIS_TYPE": 0, "CLASSIFICATION_TYPE": "U", "NORAD_CAT_ID": 66930, "ELEMENT_SET_NO": 999, "REV_AT_EPOCH": 384, "BSTAR": -0.022743195, "MEAN_MOTION_DOT": -0.02025361, "MEAN_MOTION_DDOT": 0}, "tle": {"line1": "1 66930U 25286F   25358.25002315 -.02025361  00000+0 -22743-1 0  9997", "line2": "2 66930  53.1595 352.9126 0001534  91.5213 125.0367 15.65324499  3843"}}, "geometry": {"type": "Point", "coordinates": [-2.3831763857718546, 9.669056305376547]}}, {"type": "Feature", "properties": {"norad_id": 66931, "name": "STARLINK-36130", "group": "last-30-days", "lat": 11.18854959057526, "lon": -1.1974960823846252, "alt_km": 378.2584805948836, "timestamp": "2025-12-24T18:55:54.777922+00:00", "meta": {"OBJECT_NAME": "STARLINK-36130", "OBJECT_ID": "2025-286G", "EPOCH": "2025-12-24T06:00:02.000160", "MEAN_MOTION": 15.65330034, "ECCENTRICITY": 0.00014351, "INCLINATION": 53.1592, "RA_OF_ASC_NODE": 352.9089, "ARG_OF_PERICENTER": 92.0254, "MEAN_ANOMALY": 126.4501, "EPHEMERIS_TYPE": 0, "CLASSIFICATION_TYPE": "U", "NORAD_CAT_ID": 66931, "ELEMENT_SET_NO": 999, "REV_AT_EPOCH": 384, "BSTAR": -0.022868758, "MEAN_MOTION_DOT": -0.02035473, "MEAN_MOTION_DDOT": 0}, "tle": {"line1": "1 66931U 25286G   25358.25002315 -.02035473  00000+0 -22869-1 0  9992", "line2": "2 66931  53.1592 352.9089 0001435  92.0254 126.4501 15.65330034  3847"}}, "geometry": {"type": "Point", "coordinates": [-1.1974960823846252, 11.18854959057526]}}, {"type": "Feature", "properties": {"norad_id": 66932, "name": "STARLINK-36177", "group": "last-30-days", "lat": 12.702564432662115, "lon": -0.00104112239631538, "alt_km": 377.9829221034606, "timestamp": "2025-12-24T18:55:54.777933+00:00", "meta": {"OBJECT_NAME": "STARLINK-36177", "OBJECT_ID": "2025-286H", "EPOCH": "2025-12-24T06:00:02.000160", "MEAN_MOTION": 15.65332347, "ECCENTRICITY": 0.00015092, "INCLINATION": 53.1592, "RA_OF_ASC_NODE": 352.9041, "ARG_OF_PERICENTER": 91.4503, "MEAN_ANOMALY": 128.9416, "EPHEMERIS_TYPE": 0, "CLASSIFICATION_TYPE": "U", "NORAD_CAT_ID": 66932, "ELEMENT_SET_NO": 999, "REV_AT_EPOCH": 384, "BSTAR": -0.022913744, "MEAN_MOTION_DOT": -0.02039205, "MEAN_MOTION_DDOT": 0}, "tle": {"line1": "1 66932U 25286H   25358.25002315 -.02039205  00000+0 -22914-1 0  9991", "line2": "2 66932  53.1592 352.9041 0001509  91.4503 128.9416 15.65332347  3849"}}, "geometry": {"type": "Point", "coordinates": [-0.00104112239631538, 12.702564432662115]}}, {"type": "Feature", "properties": {"norad_id": 66933, "name": "STARLINK-36157", "group": "last-30-days", "lat": 14.213594458128325, "lon": 1.2128259962124184, "alt_km": 377.7126930854274, "timestamp": "2025-12-24T18:55:54.777943+00:00", "meta": {"OBJECT_NAME": "STARLINK-36157", "OBJECT_ID": "2025-286J", "EPOCH": "2025-12-24T06:00:02.000160", "MEAN_MOTION": 15.65322357, "ECCENTRICITY": 0.0001559, "INCLINATION": 53.1594, "RA_OF_ASC_NODE": 352.9004, "ARG_OF_PERICENTER": 94.0001, "MEAN_ANOMALY": 128.3087, "EPHEMERIS_TYPE": 0, "CLASSIFICATION_TYPE": "U", "NORAD_CAT_ID": 66933, "ELEMENT_SET_NO": 999, "REV_AT_EPOCH": 384, "BSTAR": -0.022705671, "MEAN_MOTION_DOT": -0.02022297, "MEAN_MOTION_DDOT": 0}, "tle": {"line1": "1 66933U 25286J   25358.25002315 -.02022297  00000+0 -22706-1 0  9994", "line2": "2 66933  53.1594 352.9004 0001559  94.0001 128.3087 15.65322357  3846"}}, "geometry": {"type": "Point", "coordinates": [1.2128259962124184, 14.213594458128325]}}, {"type": "Feature", "properties": {"norad_id": 66934, "name": "STARLINK-36153", "group": "last-30-days", "lat": 15.717008130485379, "lon": 2.441994641770573, "alt_km": 377.47285535358515, "timestamp": "2025-12-24T18:55:54.777953+00:00", "meta": {"OBJECT_NAME": "STARLINK-36153", "OBJECT_ID": "2025-286K", "EPOCH": "2025-12-24T06:00:02.000160", "MEAN_MOTION": 15.65328192, "ECCENTRICITY": 0.00014668, "INCLINATION": 53.1596, "RA_OF_ASC_NODE": 352.8968, "ARG_OF_PERICENTER": 93.3286, "MEAN_ANOMALY": 130.8973, "EPHEMERIS_TYPE": 0, "CLASSIFICATION_TYPE": "U", "NORAD_CAT_ID": 66934, "ELEMENT_SET_NO": 999, "REV_AT_EPOCH": 384, "BSTAR": -0.022832472, "MEAN_MOTION_DOT": -0.02032536, "MEAN_MOTION_DDOT": 0}, "tle": {"line1": "1 66934U 25286K   25358.25002315 -.02032536  00000+0 -22832-1 0  9992", "line2": "2 66934  53.1596 352.8968 0001466  93.3286 130.8973 15.65328192  3846"}}, "geometry": {"type": "Point", "coordinates": [2.441994641770573, 15.717008130485379]}}, {"type": "Feature", "properties": {"norad_id": 66935, "name": "STARLINK-36127", "group": "last-30-days", "lat": 17.215144256656288, "lon": 3.6898872671596092, "alt_km": 377.15155850719384, "timestamp": "2025-12-24T18:55:54.777965+00:00", "meta": {"OBJECT_NAME": "STARLINK-36127", "OBJECT_ID": "2025-286L", "EPOCH": "2025-12-24T06:00:02.000160", "MEAN_MOTION": 15.65324894, "ECCENTRICITY": 0.00014444, "INCLINATION": 53.1594, "RA_OF_ASC_NODE": 352.892, "ARG_OF_PERICENTER": 89.5409, "MEAN_ANOMALY": 136.6038, "EPHEMERIS_TYPE": 0, "CLASSIFICATION_TYPE": "U", "NORAD_CAT_ID": 66935, "ELEMENT_SET_NO": 999, "REV_AT_EPOCH": 384, "BSTAR": -0.022776818, "MEAN_MOTION_DOT": -0.0202794, "MEAN_MOTION_DDOT": 0}, "tle": {"line1": "1 66935U 25286L   25358.25002315 -.02027940  00000+0 -22777-1 0  9994", "line2": "2 66935  53.1594 352.8920 0001444  89.5409 136.6038 15.65324894  3844"}}, "geometry": {"type": "Point", "coordinates": [3.6898872671596092, 17.215144256656288]}}, {"type": "Feature", "properties": {"norad_id": 66936, "name": "STARLINK-36160", "group": "last-30-days", "lat": 18.703974227758458, "lon": 4.9584585680743345, "alt_km": 376.8954963158112, "timestamp": "2025-12-24T18:55:54.777980+00:00", "meta": {"OBJECT_NAME": "STARLINK-36160", "OBJECT_ID": "2025-286M", "EPOCH": "2025-12-24T06:00:02.000160", "MEAN_MOTION": 15.65332473, "ECCENTRICITY": 0.00014035, "INCLINATION": 53.1592, "RA_OF_ASC_NODE": 352.8887, "ARG_OF_PERICENTER": 89.0174, "MEAN_ANOMALY": 139.0387, "EPHEMERIS_TYPE": 0, "CLASSIFICATION_TYPE": "U", "NORAD_CAT_ID": 66936, "ELEMENT_SET_NO": 999, "REV_AT_EPOCH": 384, "BSTAR": -0.022870317, "MEAN_MOTION_DOT": -0.02035744, "MEAN_MOTION_DDOT": 0}, "tle": {"line1": "1 66936U 25286M   25358.25002315 -.02035744  00000+0 -22870-1 0  9990", "line2": "2 66936  53.1592 352.8887 0001403  89.0174 139.0387 15.65332473  3840"}}, "geometry": {"type": "Point", "coordinates": [4.9584585680743345, 18.703974227758458]}}, {"type": "Feature", "properties": {"norad_id": 66937, "name": "STARLINK-36165", "group": "last-30-days", "lat": 20.183466939799906, "lon": 6.2479166731291516, "alt_km": 376.630359749116, "timestamp": "2025-12-24T18:55:54.777992+00:00", "meta": {"OBJECT_NAME": "STARLINK-36165", "OBJECT_ID": "2025-286N", "EPOCH": "2025-12-24T06:00:02.000160", "MEAN_MOTION": 15.65325165, "ECCENTRICITY": 0.0001518, "INCLINATION": 53.1594, "RA_OF_ASC_NODE": 352.8845, "ARG_OF_PERICENTER": 92.6923, "MEAN_ANOMALY": 137.2828, "EPHEMERIS_TYPE": 0, "CLASSIFICATION_TYPE": "U", "NORAD_CAT_ID": 66937, "ELEMENT_SET_NO": 999, "REV_AT_EPOCH": 384, "BSTAR": -0.022750792, "MEAN_MOTION_DOT": -0.02025988, "MEAN_MOTION_DDOT": 0}, "tle": {"line1": "1 66937U 25286N   25358.25002315 -.02025988  00000+0 -22751-1 0  9998", "line2": "2 66937  53.1594 352.8845 0001518  92.6923 137.2828 15.65325165  3846"}}, "geometry": {"type": "Point", "coordinates": [6.2479166731291516, 20.183466939799906]}}, {"type": "Feature", "properties": {"norad_id": 66938, "name": "STARLINK-36155", "group": "last-30-days", "lat": 21.65568837480561, "lon": 7.563986478721822, "alt_km": 376.3823763411574, "timestamp": "2025-12-24T18:55:54.778003+00:00", "meta": {"OBJECT_NAME": "STARLINK-36155", "OBJECT_ID": "2025-286P", "EPOCH": "2025-12-24T06:00:02.000160", "MEAN_MOTION": 15.65326153, "ECCENTRICITY": 0.00014034, "INCLINATION": 53.1595, "RA_OF_ASC_NODE": 352.88, "ARG_OF_PERICENTER": 91.3211, "MEAN_ANOMALY": 140.5724, "EPHEMERIS_TYPE": 0, "CLASSIFICATION_TYPE": "U", "NORAD_CAT_ID": 66938, "ELEMENT_SET_NO": 999, "REV_AT_EPOCH": 384, "BSTAR": -0.022780142, "MEAN_MOTION_DOT": -0.02028257, "MEAN_MOTION_DDOT": 0}, "tle": {"line1": "1 66938U 25286P   25358.25002315 -.02028257  00000+0 -22780-1 0  9993", "line2": "2 66938  53.1595 352.8800 0001403  91.3211 140.5724 15.65326153  3848"}}, "geometry": {"type": "Point", "coordinates": [7.563986478721822, 21.65568837480561]}}]}